STARLINK-31976          
1 59887U 24100C   26068.51025519 -.00004740  00000+0 -16274-3 0  9993
2 59887  43.0015 130.3389 0001770 234.8036 125.2650 15.27599527101083
HAWK-11A                
1 62382U 24247F   26068.51231358  .00009457  00000+0  34106-3 0  9991
2 62382  44.9941 114.3328 0005466 327.3713  32.6832 15.28849427 67741
